0 TITAN 3C TRANSTAGE DEB
1 28804U 65108BW  13285.10264556 -.00000011  00000-0  00000+0 0  2816
2 28804 027.2670 271.0579 6594009 031.0638 355.5966 02.64727313 91254
0 TITAN 3C TRANSTAGE DEB
1 28804U 65108BW  13293.03386245 -.00000051  00000-0  00000+0 0  2822
2 28804 027.2935 268.3986 6598758 035.2248 354.4857 02.64736012 91463
0 TITAN 3C TRANSTAGE DEB
1 28804U 65108BW  13293.03386245 -.00000051  00000-0  00000+0 0  2833
2 28804 027.2935 268.3986 6598758 035.2248 354.4857 02.64736012 91463
0 TITAN 3C TRANSTAGE DEB
1 28804U 65108BW  13296.05519105 -.00000054  00000-0  00000+0 0  2845
2 28804 027.2896 267.3200 6598315 037.1314 353.9927 02.64738247 91544
